MALLIGYONG-1            
1 58400U 23179A   24049.91006484  .00008954  00000+0  38865-3 0  9998
2 58400  97.4213 298.5278 0014620 330.6711  29.3703 15.22464349 13581
